STARLINK-31459          
1 59233U 24049C   26068.21608523 -.00002737  00000+0 -89985-4 0  9993
2 59233  43.0004 146.2142 0000795 294.7089  65.3680 15.27579059112322
LIME                    
1 62648U 25009AR  26068.73906781  .00013254  00000+0  47723-3 0  9995
2 62648  97.3985 151.4831 0001635  35.9029 324.2320 15.28703313 63766
